ONEWEB-0588             
1 55153U 23004P   25336.81523406  .00000045  00000+0  81825-4 0  9992
2 55153  87.9182  14.4890 0001346  92.9078 267.2208 13.18685409143810
ONEWEB-0598             
1 55154U 23004Q   25336.77237370  .00000445  00000+0  12195-2 0  9996
2 55154  87.8859  60.1895 0001748  82.3267 277.8060 13.11416783140150
ONEWEB-0599             
1 55155U 23004R   25336.72990559  .00000053  00000+0  10403-3 0  9993
2 55155  87.9123  44.9359 0001857  95.5956 264.5388 13.17648233141614
ONEWEB-0614             
1 55156U 23004S   25336.76729425  .00000491  00000+0  13490-2 0  9994
2 55156  87.8858  60.1997 0001446 114.3227 245.8052 13.11417217140093
ONEWEB-0616             
1 55157U 23004T   25336.69615675  .00000022  00000+0  22687-4 0  9998
2 55157  87.9130  44.9334 0002737  98.7554 261.3887 13.17648639141826
ONEWEB-0617             
1 55158U 23004U   25336.75541902  .00000280  00000+0  75442-3 0  9999
2 55158  87.8862  60.1810 0001292 104.6932 255.4339 13.11419039140110
ONEWEB-0618             
1 55159U 23004V   25336.82516090  .00011704  00000+0  70928-3 0  9995
2 55159  86.9087 257.2446 0011380 313.9038  46.1260 15.10415065152594
ONEWEB-0619             
1 55160U 23004W   25336.72822128  .00000021  00000+0  21936-4 0  9994
2 55160  87.9127  44.9012 0001958 114.4383 245.6953 13.17648422141727
